COMMENT,ORIGINATOR,NORAD_CAT_ID,OBJECT_NAME,OBJECT_TYPE,CLASSIFICATION_TYPE,INTLDES,EPOCH,EPOCH_MICROSECONDS,MEAN_MOTION,ECCENTRICITY,INCLINATION,RA_OF_ASC_NODE,ARG_OF_PERICENTER,MEAN_ANOMALY,EPHEMERIS_TYPE,ELEMENT_SET_NO,REV_AT_EPOCH,BSTAR,MEAN_MOTION_DOT,MEAN_MOTION_DDOT,FILE,TLE_LINE0,TLE_LINE1,TLE_LINE2,OBJECT_ID,OBJECT_NUMBER,SEMIMAJOR_AXIS,PERIOD,APOGEE,PERIGEE,DECAYED
GENERATED VIA SPACETRACK.ORG API,18 SPCS,57309,STARLINK-30163,PAYLOAD,U,23096V,2025-10-26 12:00:00,998784,15.52676385,0.0033274,42.9898,184.5467,217.3157,69.6481,0,999,587,0.0045952,0.00308499,0,4860473,0 STARLINK-30163,1 57309U 23096V   25299.50001156  .00308499  00000-0  45952-2 0  9999,2 57309  42.9898 184.5467 0033274 217.3157  69.6481 15.52676385  5878,2023-096V,57309,6787.053,92.743,431.501,386.334,1
GENERATED VIA SPACETRACK.ORG API,18 SPCS,57309,STARLINK-30163,PAYLOAD,U,23096V,2025-10-26 20:00:01,224,15.52898325,0.0033284,42.9894,182.593,219.0576,133.4664,0,999,592,0.0048167,0.00326735,0,4861141,0 STARLINK-30163,1 57309U 23096V   25299.83334491  .00326735  00000-0  48167-2 0  9990,2 57309  42.9894 182.5930 0033284 219.0576 133.4664 15.52898325  5921,2023-096V,57309,6786.406,92.730,430.859,385.683,1
GENERATED VIA SPACETRACK.ORG API,18 SPCS,57309,STARLINK-30163,PAYLOAD,U,23096V,2025-10-27 00:00:02,160,15.529899883,0.0033194889,42.989402,181.61524,220.42002,345.06976,0,999,594,0.005271201,0.0036019196,0,4861461,0 STARLINK-30163,1 57309U 23096V   25300.00002315  .00360192  00000-0  52712-2 0  9995,2 57309  42.9894 181.6152 0033195 220.4200 345.0698 15.52989988  5944,2023-096V,57309,6786.139,92.724,430.530,385.477,1
GENERATED VIA SPACETRACK.ORG API,18 SPCS,57309,STARLINK-30163,PAYLOAD,U,23096V,2025-10-27 04:00:01,998720,15.53057816,0.0033331,42.9894,180.6362,221.7673,196.6658,0,999,583,0.0062518,0.00432102,0,4861910,0 STARLINK-30163,1 57309U 23096V   25300.16668980  .00432102  00000-0  62518-2 0  9994,2 57309  42.9894 180.6362 0033331 221.7673 196.6658 15.53057816  5837,2023-096V,57309,6785.941,92.720,430.424,385.188,1
GENERATED VIA SPACETRACK.ORG API,18 SPCS,57309,STARLINK-30163,PAYLOAD,U,23096V,2025-10-27 08:00:03,384,15.53246922,0.0033394824,42.989612,179.65554,222.8911,48.607482,0,999,585,0.0041750868,0.0028543127,0,4862303,0 STARLINK-30163,1 57309U 23096V   25300.33336806  .00285431  00000-0  41751-2 0  9999,2 57309  42.9896 179.6555 0033395 222.8911  48.6075 15.53246922  5857,2023-096V,57309,6785.390,92.709,429.915,384.596,1
GENERATED VIA SPACETRACK.ORG API,18 SPCS,57309,STARLINK-30163,PAYLOAD,U,23096V,2025-10-27 12:00:02,160,15.53326013,0.0033612,42.9896,178.6764,223.8171,260.7159,0,999,588,0.0049003,0.00338271,0,4863004,0 STARLINK-30163,1 57309U 23096V   25300.50002315  .00338271  00000-0  49003-2 0  9992,2 57309  42.9896 178.6764 0033612 223.8171 260.7159 15.53326013  5882,2023-096V,57309,6785.160,92.704,429.831,384.219,1
GENERATED VIA SPACETRACK.ORG API,18 SPCS,57309,STARLINK-30163,PAYLOAD,U,23096V,2025-10-27 20:00:01,224,15.53544879,0.0033478,42.9894,176.7211,226.0402,324.7812,0,999,593,0.00433,0.00299838,0,4863715,0 STARLINK-30163,1 57309U 23096V   25300.83334491  .00299838  00000-0  43300-2 0  9990,2 57309  42.9894 176.7211 0033478 226.0402 324.7812 15.53544879  5933,2023-096V,57309,6784.523,92.691,429.101,383.675,1
GENERATED VIA SPACETRACK.ORG API,18 SPCS,57309,STARLINK-30163,PAYLOAD,U,23096V,2025-10-27 20:00:01,224,15.53544879,0.0033477814,42.989409,176.72114,226.04021,324.78118,0,999,593,0.0043299917,0.0029983793,0,4863735,0 STARLINK-30163,1 57309U 23096V   25300.83334491  .00299838  00000-0  43300-2 0  9990,2 57309  42.9894 176.7211 0033478 226.0402 324.7812 15.53544879  5933,2023-096V,57309,6784.523,92.691,429.101,383.675,1
GENERATED VIA SPACETRACK.ORG API,18 SPCS,57309,STARLINK-30163,PAYLOAD,U,23096V,2025-10-28 16:00:07,416,15.541546678,0.0033813991,42.989482,171.82065,231.60405,306.75295,0,999,580,0.0054692384,0.0039187091,0,4863914,0 STARLINK-30163,1 57309U 23096V   25301.66674769  .00391871  00000-0  54692-2 0  9993,2 57309  42.9895 171.8207 0033814 231.6041 306.7530 15.54154668  5807,2023-096V,57309,6782.748,92.655,427.548,381.678,1
GENERATED VIA SPACETRACK.ORG API,18 SPCS,57309,STARLINK-30163,PAYLOAD,U,23096V,2025-10-29 08:00:01,999872,15.547866872,0.0033787289,42.989509,167.89792,236.134,77.02135,0,999,591,0.0053174052,0.0038987942,0,4864813,0 STARLINK-30163,1 57309U 23096V   25302.33335648  .00389879  00000-0  53174-2 0  9997,2 57309  42.9895 167.8979 0033787 236.1340  77.0214 15.54786687  5910,2023-096V,57309,6780.910,92.617,425.686,379.864,1
GENERATED VIA SPACETRACK.ORG API,18 SPCS,57309,STARLINK-30163,PAYLOAD,U,23096V,2025-10-29 12:00:02,998944,15.54839034,0.0033987,42.9892,166.9168,237.3174,289.907,0,999,588,0.0060735,0.00449533,0,4864435,0 STARLINK-30163,1 57309U 23096V   25302.50003471  .00449533  00000-0  60735-2 0  9997,2 57309  42.9892 166.9168 0033987 237.3174 289.9070 15.54839034  5882,2023-096V,57309,6780.758,92.614,425.668,379.577,1
GENERATED VIA SPACETRACK.ORG API,18 SPCS,57309,STARLINK-30163,PAYLOAD,U,23096V,2025-10-30 00:00:02,160,15.552467866,0.0033790671,42.989221,163.97559,240.86703,208.76039,0,999,586,0.0062116188,0.0046764881,0,4864873,0 STARLINK-30163,1 57309U 23096V   25303.00002315  .00467649  00000-0  62116-2 0  9992,2 57309  42.9892 163.9756 0033791 240.8670 208.7604 15.55246787  5863,2023-096V,57309,6779.572,92.590,424.346,378.529,1
GENERATED VIA SPACETRACK.ORG API,18 SPCS,57309,STARLINK-30163,PAYLOAD,U,23096V,2025-10-30 08:00:01,999872,15.556039024,0.0033987366,42.989365,162.00846,243.12541,275.2438,0,999,591,0.0057501516,0.0043721198,0,4864899,0 STARLINK-30163,1 57309U 23096V   25303.33335648  .00437212  00000-0  57502-2 0  9992,2 57309  42.9894 162.0085 0033987 243.1254 275.2438 15.55603902  5917,2023-096V,57309,6778.535,92.569,423.438,377.361,1
GENERATED VIA SPACETRACK.ORG API,18 SPCS,57309,STARLINK-30163,PAYLOAD,U,23096V,2025-10-30 20:00:03,384,15.56002094,0.0033861,42.9888,159.0641,246.4365,195.8191,0,999,589,0.0063096,0.00489935,0,4865171,0 STARLINK-30163,1 57309U 23096V   25303.83336806  .00489935  00000-0  63096-2 0  9998,2 57309  42.9888 159.0641 0033861 246.4365 195.8191 15.56002094  5890,2023-096V,57309,6777.378,92.545,422.192,376.294,1
GENERATED VIA SPACETRACK.ORG API,18 SPCS,57309,STARLINK-30163,PAYLOAD,U,23096V,2025-10-31 00:00:02,160,15.562725489,0.0033670232,42.989178,158.08071,247.91687,49.12242,0,999,592,0.0078568301,0.0062623159,0,4865436,0 STARLINK-30163,1 57309U 23096V   25304.00002315  .00626232  00000-0  78568-2 0  9996,2 57309  42.9892 158.0807 0033670 247.9169  49.1224 15.56272549  5920,2023-096V,57309,6776.593,92.529,421.275,375.641,1
GENERATED VIA SPACETRACK.ORG API,18 SPCS,57309,STARLINK-30163,PAYLOAD,U,23096V,2025-10-31 08:00:03,384,15.566501174,0.0033996036,42.989299,156.11113,249.96617,117.05798,0,999,586,0.0054033985,0.004267092,0,4865472,0 STARLINK-30163,1 57309U 23096V   25304.33336806  .00426709  00000-0  54034-2 0  9996,2 57309  42.9893 156.1111 0033996 249.9662 117.0580 15.56650117  5863,2023-096V,57309,6775.497,92.506,420.396,374.328,1
GENERATED VIA SPACETRACK.ORG API,18 SPCS,57309,STARLINK-30163,PAYLOAD,U,23096V,2025-10-31 16:00:01,998720,15.56895204,0.0033706,42.9889,154.1451,251.6079,185.7184,0,999,591,0.0058518,0.00468539,0,4866029,0 STARLINK-30163,1 57309U 23096V   25304.66668980  .00468539  00000-0  58518-2 0  9991,2 57309  42.9889 154.1451 0033706 251.6079 185.7184 15.56895204  5910,2023-096V,57309,6774.786,92.492,419.486,373.816,1
GENERATED VIA SPACETRACK.ORG API,18 SPCS,57309,STARLINK-30163,PAYLOAD,U,23096V,2025-10-31 20:00:03,384,15.57050746,0.0033814,42.9922,153.162,253.5875,39.095,0,999,594,0.0060867,0.00491642,0,4866958,0 STARLINK-30163,1 57309U 23096V   25304.83336806  .00491642  00000-0  60867-2 0  9990,2 57309  42.9922 153.1620 0033814 253.5875  39.0950 15.57050746  5940,2023-096V,57309,6774.335,92.483,419.107,373.293,1
GENERATED VIA SPACETRACK.ORG API,18 SPCS,57309,STARLINK-30163,PAYLOAD,U,23096V,2025-11-01 16:00:01,999584,15.577749335,0.0033907218,42.988473,148.23644,259.088,31.359041,0,999,590,0.0049340201,0.0040545037,0,4867053,0 STARLINK-30163,1 57309U 23096V   25305.66668981  .00405450  00000-0  49340-2 0  9999,2 57309  42.9885 148.2364 0033907 259.0880  31.3590 15.57774934  5901,2023-096V,57309,6772.235,92.440,417.063,371.137,1
GENERATED VIA SPACETRACK.ORG API,18 SPCS,57309,STARLINK-30163,PAYLOAD,U,23096V,2025-11-02 08:00:01,999872,15.58244644,0.0033922665,42.988368,144.29156,263.44285,170.58433,0,999,592,0.0048623937,0.004068342,0,4867744,0 STARLINK-30163,1 57309U 23096V   25306.33335648  .00406834  00000-0  48624-2 0  9996,2 57309  42.9884 144.2916 0033923 263.4429 170.5843 15.58244644  5925,2023-096V,57309,6770.874,92.412,415.708,369.771,1
GENERATED VIA SPACETRACK.ORG API,18 SPCS,57309,STARLINK-30163,PAYLOAD,U,23096V,2025-11-02 12:00:02,160,15.58359619,0.0033829,42.9878,143.3049,264.5562,25.5896,0,999,595,0.0053822,0.00454838,0,4867574,0 STARLINK-30163,1 57309U 23096V   25306.50002315  .00454838  00000-0  53822-2 0  9990,2 57309  42.9878 143.3049 0033829 264.5562  25.5896 15.58359619  5959,2023-096V,57309,6770.541,92.405,415.310,369.502,1
GENERATED VIA SPACETRACK.ORG API,18 SPCS,57309,STARLINK-30163,PAYLOAD,U,23096V,2025-11-03 20:00:03,384,15.59631076,0.0033895,42.9904,135.4096,274.4586,308.0174,0,999,578,0.0059146,0.00529451,0,4868315,0 STARLINK-30163,1 57309U 23096V   25307.83336806  .00529451  00000-0  59146-2 0  9991,2 57309  42.9904 135.4096 0033895 274.4586 308.0174 15.59631076  5782,2023-096V,57309,6766.861,92.330,411.662,365.790,1
GENERATED VIA SPACETRACK.ORG API,18 SPCS,57309,STARLINK-30163,PAYLOAD,U,23096V,2025-11-04 00:00:02,160,15.598929987,0.0033698681,42.987034,134.42076,275.98594,163.39552,0,999,581,0.005902186,0.0053381411,0,4868542,0 STARLINK-30163,1 57309U 23096V   25308.00002315  .00533814  00000-0  59022-2 0  9997,2 57309  42.9870 134.4208 0033699 275.9859 163.3955 15.59892999  5815,2023-096V,57309,6766.103,92.314,410.769,365.168,1
